[
    {
        "icaoId": "KMCI",
        "receiptTime": "2025-09-26T23:56:21.753Z",
        "obsTime": 1758930780,
        "reportTime": "2025-09-27T00:00:00.000Z",
        "temp": 24.4,
        "dewp": 13.3,
        "wdir": 170,
        "wspd": 4,
        "visib": "10+",
        "altim": 1012.6,
        "slp": 1011.6,
        "qcField": 12,
        "presTend": -0.2,
        "maxT": 28.3,
        "minT": 24.4,
        "metarType": "METAR",
        "rawOb": "METAR KMCI 262353Z 17004KT 10SM CLR 24/13 A2990 RMK AO2 SLP116 T02440133 10283 20244 56002 $",
        "lat": 39.2975,
        "lon": -94.7309,
        "elev": 308,
        "name": "Kansas City Intl, MO, US",
        "cover": "CLR",
        "clouds": [],
        "fltCat": "VFR"
    },
    {
        "icaoId": "KMCI",
        "receiptTime": "2025-09-26T22:56:23.325Z",
        "obsTime": 1758927180,
        "reportTime": "2025-09-26T23:00:00.000Z",
        "temp": 27.2,
        "dewp": 11.1,
        "wdir": 170,
        "wspd": 5,
        "visib": "10+",
        "altim": 1012.6,
        "slp": 1011.6,
        "qcField": 12,
        "metarType": "METAR",
        "rawOb": "METAR KMCI 262253Z 17005KT 10SM CLR 27/11 A2990 RMK AO2 SLP116 T02720111 $",
        "lat": 39.2975,
        "lon": -94.7309,
        "elev": 308,
        "name": "Kansas City Intl, MO, US",
        "cover": "CLR",
        "clouds": [],
        "fltCat": "VFR"
    }
]